SUOMI-100               
1 43804U 18099AY  26068.68271181  .00014037  00000+0  54773-3 0  9995
2 43804  97.4315 129.5602 0008969 269.9465  90.0745 15.25995383398238
STARLINK-31327          
1 59160U 24044J   26068.10138726 -.00001514  00000+0 -45536-4 0  9994
2 59160  42.9989 110.5181 0000142 312.1995  47.8844 15.27571368113508
